OBJECT_NAME,OBJECT_ID,EPOCH,MEAN_MOTION,ECCENTRICITY,INCLINATION,RA_OF_ASC_NODE,ARG_OF_PERICENTER,MEAN_ANOMALY,EPHEMERIS_TYPE,CLASSIFICATION_TYPE,NORAD_CAT_ID,ELEMENT_SET_NO,REV_AT_EPOCH,BSTAR,MEAN_MOTION_DOT,MEAN_MOTION_DDOT
ATLAS CENTAUR 2,1963-047A,2026-07-02T18:12:02.827584,14.12546036,.05457726,30.3536,272.3159,14.8297,346.7644,0,U,694,999,14790,.13728636E-3,.1216E-4,0
THOR AGENA D R/B,1964-002A,2026-07-02T18:51:16.355808,14.34072082,.00317858,99.1152,203.3589,283.9362,75.8286,0,U,733,999,25479,.95116732E-4,.218E-5,0
SL-3 R/B,1964-053B,2026-07-02T20:43:52.277664,14.61434313,.00806344,65.0779,353.5466,256.1931,103.0187,0,U,877,999,28362,.66986345E-4,.221E-5,0
SL-8 R/B,1967-045B,2026-07-02T20:43:14.798208,14.45690153,.00630468,74.0107,132.9805,113.0954,247.6866,0,U,2802,999,10566,.10406094E-3,.35E-5,0
SL-8 R/B,1968-040B,2026-07-02T17:59:31.144992,15.03892451,.00256457,74.0307,78.4630,229.0101,130.8870,0,U,3230,999,10730,.18936447E-3,.2584E-4,0
OAO 2,1968-110A,2026-07-02T17:08:28.214016,14.47358161,.00051123,34.9947,342.9829,33.1608,326.9402,0,U,3597,999,3577,.65153434E-4,.223E-5,0
ISIS 1,1969-009A,2026-07-02T20:36:06.648192,11.30435425,.17067783,88.4440,142.6781,216.5633,130.6148,0,U,3669,999,36154,.46456685E-4,.69E-6,0
SERT 2,1970-009A,2026-07-02T18:50:56.348160,13.58740279,.00040894,99.2840,120.6613,224.5749,164.1304,0,U,4327,999,79552,.62782994E-4,.5E-7,0
SL-3 R/B,1971-028B,2026-07-02T19:02:26.317824,15.71272760,.00143875,81.2322,268.7930,225.1909,134.8181,0,U,5118,999,669,.48315394E-3,.61854E-3,0
ASTEX 1,1971-089A,2026-07-02T17:28:49.827936,14.50864174,.00176399,92.6998,188.8607,60.4881,299.8082,0,U,5560,999,87898,.14166933E-3,.559E-5,0
SL-8 R/B,1971-119B,2026-07-02T19:01:05.155392,14.39613339,.05433669,73.8893,320.2068,263.0386,90.8700,0,U,5730,999,67204,.2642212E-3,.5152E-4,0
OAO 3 (COPERNICUS),1972-065A,2026-07-02T19:40:15.575808,14.60069284,.0006381,35.0070,1.3323,16.0307,1.4134,0,U,6153,999,86303,.76731377E-4,.353E-5,0
ATLAS CENTAUR R/B,1972-065B,2026-07-02T19:34:09.152544,14.77951002,.00342619,35.0030,350.9208,259.9826,99.7007,0,U,6155,999,85830,.15770376E-3,.1143E-4,0
SL-8 R/B,1975-112B,2026-07-02T16:35:10.671072,14.38253080,.00166156,74.0593,167.3512,232.3431,127.6217,0,U,8459,999,64840,.58370614E-4,.151E-5,0
SL-3 R/B,1977-057B,2026-07-02T19:05:19.517856,15.48194336,.00060488,97.5842,1.0953,214.8709,145.2146,0,U,10114,999,68612,.23402419E-3,.12226E-3,0
SEASAT 1,1978-064A,2026-07-02T17:35:48.820416,14.46254050,.00013729,108.0182,6.9234,243.8757,116.2248,0,U,10967,999,52314,.11440005E-3,.272E-5,0
SL-14 R/B,1979-011B,2026-07-02T17:37:49.200672,14.92029037,.00168762,82.5244,347.3979,37.6984,322.5415,0,U,11267,999,54593,.55730451E-4,.592E-5,0
SL-8 R/B,1979-089B,2026-07-02T17:46:49.052064,14.42410705,.00154876,74.0680,238.0653,16.3226,343.8426,0,U,11574,999,45269,.7597842E-4,.225E-5,0
SL-14 R/B,1980-005B,2026-07-02T18:09:08.348832,14.91041413,.0016825,82.5131,198.0711,135.5814,224.6758,0,U,11672,999,49363,.5368651E-4,.558E-5,0
SL-8 R/B,1981-003B,2026-07-02T17:54:05.150016,15.14701480,.02507361,82.9353,183.3114,136.8832,225.2347,0,U,12139,999,33207,.42610173E-3,.1778E-3,0
SL-3 R/B,1981-046B,2026-07-02T20:51:37.706688,15.44538380,.00167784,81.2305,151.1733,343.3441,16.7250,0,U,12465,999,45619,.30998958E-3,.14499E-3,0
SL-3 R/B,1981-103B,2026-07-02T19:53:32.803296,15.22412491,.00115117,81.1583,78.2563,257.2240,102.7706,0,U,12904,999,99074,.21875207E-3,.5088E-4,0
SL-3 R/B,1982-013B,2026-07-02T19:05:27.450240,15.22888199,.00224507,81.1728,25.7345,148.5527,211.7054,0,U,13068,999,42186,.18748561E-3,.4449E-4,0
SL-3 R/B,1982-039B,2026-07-02T19:11:51.182880,15.10638147,.00275622,81.1488,83.0489,302.0211,57.8337,0,U,13154,999,39901,.23280352E-3,.3905E-4,0
SL-3 R/B,1982-079B,2026-07-02T18:56:43.251936,15.25920519,.0024722,81.1450,57.0310,133.7123,226.6165,0,U,13403,999,39524,.24218544E-3,.6292E-4,0
SL-14 R/B,1982-092B,2026-07-02T20:36:35.490240,14.86758380,.00187641,82.5670,33.6375,279.9708,90.3555,0,U,13553,999,34604,.47549249E-4,.449E-5,0
SL-3 R/B,1983-010B,2026-07-02T19:36:06.986592,15.49634631,.00143792,81.0995,220.7103,8.8508,351.2989,0,U,13819,999,37575,.26991951E-3,.15032E-3,0
SL-3 R/B,1983-075B,2026-07-02T20:27:00.385056,15.40774963,.00210485,97.6100,192.9990,171.6511,188.5089,0,U,14208,999,34787,.24561167E-3,.10041E-3,0
COSMOS 1536,1984-013A,2026-07-02T20:14:15.128160,15.25222352,.00128832,82.5447,353.2478,233.9106,126.0940,0,U,14699,999,29016,.2948128E-3,.7453E-4,0
SL-14 R/B,1984-027B,2026-07-02T20:04:15.392928,14.86072096,.00167971,82.5423,137.0423,316.0772,43.9109,0,U,14820,999,26473,.56632648E-4,.521E-5,0
