ATLAS CENTAUR 2         
1 00694U 63047A   26183.75836606  .00001216  00000+0  13729-3 0  9994
2 00694  30.3536 272.3159 0545772  14.8297 346.7644 14.12546036147908
THOR AGENA D R/B        
1 00733U 64002A   26183.78560597  .00000218  00000+0  95117-4 0  9999
2 00733  99.1152 203.3589 0031785 283.9362  75.8286 14.34072082254793
SL-3 R/B                
1 00877U 64053B   26183.86379951  .00000221  00000+0  66986-4 0  9991
2 00877  65.0779 353.5466 0080634 256.1931 103.0187 14.61434313283629
SL-8 R/B                
1 02802U 67045B   26183.86336572  .00000350  00000+0  10406-3 0  9995
2 02802  74.0107 132.9805 0063046 113.0954 247.6866 14.45690153105668
SL-8 R/B                
1 03230U 68040B   26183.74966603  .00002584  00000+0  18936-3 0  9995
2 03230  74.0307  78.4630 0025645 229.0101 130.8870 15.03892451107302
OAO 2                   
1 03597U 68110A   26183.71421544  .00000223  00000+0  65153-4 0  9998
2 03597  34.9947 342.9829 0005112  33.1608 326.9402 14.47358161 35777
ISIS 1                  
1 03669U 69009A   26183.85841028  .00000069  00000+0  46457-4 0  9998
2 03669  88.4440 142.6781 1706778 216.5633 130.6148 11.30435425361545
SERT 2                  
1 04327U 70009A   26183.78537440  .00000005  00000+0  62783-4 0  9994
2 04327  99.2840 120.6613 0004089 224.5749 164.1304 13.58740279795526
SL-3 R/B                
1 05118U 71028B   26183.79336016  .00061854  00000+0  48315-3 0  9995
2 05118  81.2322 268.7930 0014387 225.1909 134.8181 15.71272760  6696
ASTEX 1                 
1 05560U 71089A   26183.72835449  .00000559  00000+0  14167-3 0  9993
2 05560  92.6998 188.8607 0017639  60.4881 299.8082 14.50864174878980
SL-8 R/B                
1 05730U 71119B   26183.79242078  .00005152  00000+0  26422-3 0  9994
2 05730  73.8893 320.2068 0543366 263.0386  90.8700 14.39613339672046
OAO 3 (COPERNICUS)      
1 06153U 72065A   26183.81962472  .00000353  00000+0  76731-4 0  9992
2 06153  35.0070   1.3323 0006381  16.0307   1.4134 14.60069284863032
ATLAS CENTAUR R/B       
1 06155U 72065B   26183.81538371  .00001143  00000+0  15770-3 0  9994
2 06155  35.0030 350.9208 0034261 259.9826  99.7007 14.77951002858306
SL-8 R/B                
1 08459U 75112B   26183.69109573  .00000151  00000+0  58371-4 0  9996
2 08459  74.0593 167.3512 0016615 232.3431 127.6217 14.38253080648400
SL-3 R/B                
1 10114U 77057B   26183.79536479  .00012226  00000+0  23402-3 0  9999
2 10114  97.5842   1.0953 0006048 214.8709 145.2146 15.48194336686121
SEASAT 1                
1 10967U 78064A   26183.73320394  .00000272  00000+0  11440-3 0  9992
2 10967 108.0182   6.9234 0001372 243.8757 116.2248 14.46254050523148
SL-14 R/B               
1 11267U 79011B   26183.73459723  .00000592  00000+0  55730-4 0  9994
2 11267  82.5244 347.3979 0016876  37.6984 322.5415 14.92029037545936
SL-8 R/B                
1 11574U 79089B   26183.74084551  .00000225  00000+0  75978-4 0  9993
2 11574  74.0680 238.0653 0015487  16.3226 343.8426 14.42410705452691
SL-14 R/B               
1 11672U 80005B   26183.75634663  .00000558  00000+0  53687-4 0  9990
2 11672  82.5131 198.0711 0016825 135.5814 224.6758 14.91041413493632
SL-8 R/B                
1 12139U 81003B   26183.74589294  .00017780  00000+0  42610-3 0  9994
2 12139  82.9353 183.3114 0250736 136.8832 225.2347 15.14701480332074
SL-3 R/B                
1 12465U 81046B   26183.86918642  .00014499  00000+0  30999-3 0  9990
2 12465  81.2305 151.1733 0016778 343.3441  16.7250 15.44538380456198
SL-3 R/B                
1 12904U 81103B   26183.82885189  .00005088  00000+0  21875-3 0  9994
2 12904  81.1583  78.2563 0011511 257.2240 102.7706 15.22412491990749
SL-3 R/B                
1 13068U 82013B   26183.79545660  .00004449  00000+0  18749-3 0  9996
2 13068  81.1728  25.7345 0022450 148.5527 211.7054 15.22888199421862
SL-3 R/B                
1 13154U 82039B   26183.79989795  .00003905  00000+0  23280-3 0  9993
2 13154  81.1488  83.0489 0027562 302.0211  57.8337 15.10638147399010
SL-3 R/B                
1 13403U 82079B   26183.78938949  .00006292  00000+0  24219-3 0  9993
2 13403  81.1450  57.0310 0024722 133.7123 226.6165 15.25920519395245
SL-14 R/B               
1 13553U 82092B   26183.85874410  .00000449  00000+0  47549-4 0  9994
2 13553  82.5670  33.6375 0018764 279.9708  90.3555 14.86758380346046
SL-3 R/B                
1 13819U 83010B   26183.81674753  .00015032  00000+0  26992-3 0  9996
2 13819  81.0995 220.7103 0014379   8.8508 351.2989 15.49634631375750
SL-3 R/B                
1 14208U 83075B   26183.85208779  .00010041  00000+0  24561-3 0  9990
2 14208  97.6100 192.9990 0021048 171.6511 188.5089 15.40774963347870
COSMOS 1536             
1 14699U 84013A   26183.84323065  .00007453  00000+0  29481-3 0  9991
2 14699  82.5447 353.2478 0012883 233.9106 126.0940 15.25222352290168
SL-14 R/B               
1 14820U 84027B   26183.83628927  .00000521  00000+0  56633-4 0  9995
2 14820  82.5423 137.0423 0016797 316.0772  43.9109 14.86072096264738
